OBJECT_NAME,OBJECT_ID,EPOCH,MEAN_MOTION,ECCENTRICITY,INCLINATION,RA_OF_ASC_NODE,ARG_OF_PERICENTER,MEAN_ANOMALY,EPHEMERIS_TYPE,CLASSIFICATION_TYPE,NORAD_CAT_ID,ELEMENT_SET_NO,REV_AT_EPOCH,BSTAR,MEAN_MOTION_DOT,MEAN_MOTION_DDOT
STARLINK-37289,2026-070D,2026-06-16T13:15:02.062944,15.34385331,.0001089,53.1584,262.4963,90.5338,269.5789,0,U,68545,999,1170,-.71658472E-3,-.24497E-3,0
STARLINK-37290,2026-070E,2026-06-16T13:08:59.363520,15.34399254,.00011584,53.1588,262.4514,90.9722,269.1413,0,U,68546,999,1170,.468254E-3,.15477E-3,0
STARLINK-37245,2026-070F,2026-06-16T12:59:54.074976,15.34411560,.00011131,53.1588,262.4245,66.0790,294.0329,0,U,68547,999,1170,.6827515E-3,.2277E-3,0
STARLINK-37145,2026-070G,2026-06-16T13:05:58.319232,15.34254613,.00007416,53.1592,262.4532,99.8359,260.2727,0,U,68548,999,1170,-.51105486E-2,-.168457E-2,0
STARLINK-36204,2026-070H,2026-06-16T12:56:52.344672,15.34403231,.00011046,53.1600,262.4133,76.6571,283.4554,0,U,68549,999,1170,.55076267E-3,.18279E-3,0
STARLINK-36304,2026-070J,2026-06-16T12:50:48.676704,15.34399334,.00010902,53.1593,262.3832,79.7466,280.3659,0,U,68550,999,1170,.50412356E-3,.16694E-3,0
STARLINK-37288,2026-070K,2026-06-16T12:47:46.544640,15.34406980,.0001207,53.1610,262.3726,58.9179,301.1942,0,U,68551,999,1170,.72768841E-3,.24295E-3,0
STARLINK-37295,2026-070L,2026-06-16T12:53:49.947360,15.34400567,.00012664,53.1602,262.4006,78.5335,281.5810,0,U,68552,999,1170,.73363951E-3,.24492E-3,0
STARLINK-37254,2026-070M,2026-06-16T12:38:41.707968,15.34400204,.00016801,53.1607,262.3279,95.0828,265.0366,0,U,68553,999,1170,.4873879E-3,.16126E-3,0
STARLINK-37255,2026-070N,2026-06-16T12:35:39.686496,15.34406263,.00012313,53.1603,262.3174,90.4173,269.6971,0,U,68554,999,1170,.76712306E-3,.25636E-3,0
STARLINK-37146,2026-070P,2026-06-16T12:41:43.462464,15.34481661,.00014645,53.1604,262.3363,81.2066,278.9102,0,U,68555,999,1170,.18861868E-2,.64064E-3,0
STARLINK-37144,2026-070Q,2026-06-16T14:03:23.775840,15.34401431,.00013082,53.1596,261.9757,80.0690,280.0460,0,U,68556,999,1171,.65454463E-3,.21804E-3,0
STARLINK-37210,2026-070R,2026-06-16T12:32:37.900032,15.34404436,.00014669,53.1590,262.2944,98.4350,261.6819,0,U,68557,999,1170,.50511873E-3,.1673E-3,0
STARLINK-37227,2026-070S,2026-06-16T14:00:22.054176,15.34415767,.00012907,53.1591,261.9736,61.4510,298.6622,0,U,68558,999,1171,.51969956E-3,.17232E-3,0
STARLINK-37294,2026-070T,2026-06-16T13:57:20.321280,15.34415448,.00014879,53.1606,261.9627,54.8473,305.2668,0,U,68559,999,1171,.6054851E-3,.20146E-3,0
STARLINK-37291,2026-070U,2026-06-16T13:54:18.468288,15.34411371,.00011506,53.1592,261.9444,85.2419,274.8715,0,U,68560,999,1171,.50058611E-3,.1658E-3,0
STARLINK-37114,2026-070V,2026-06-16T13:51:16.767360,15.34409378,.00011887,53.1589,261.9292,75.5312,284.5822,0,U,68561,999,1171,.58299346E-3,.19378E-3,0
STARLINK-37233,2026-070W,2026-06-16T12:11:24.712224,15.34408158,.00009986,53.1590,262.1847,135.1142,224.9941,0,U,68562,999,1170,.81884421E-3,.27398E-3,0
STARLINK-36238,2026-070X,2026-06-16T13:48:14.952384,15.34408922,.00014184,53.1607,261.9131,84.3449,275.7715,0,U,68563,999,1171,.44802746E-3,.14795E-3,0
STARLINK-37008,2026-070Y,2026-06-16T13:42:11.291328,15.34399700,.00011863,53.1586,261.8738,61.6113,298.5009,0,U,68564,999,1171,.70811358E-3,.23624E-3,0
STARLINK-37161,2026-070Z,2026-06-16T12:05:21.733728,15.34409369,.00015125,53.1601,262.1584,81.5316,278.5858,0,U,68565,999,1170,.5220675E-3,.17309E-3,0
STARLINK-37212,2026-070AA,2026-06-16T12:02:20.724864,15.34354169,.00012373,53.1586,262.1595,55.9139,304.1981,0,U,68566,999,1170,-.57382626E-3,-.19685E-3,0
STARLINK-37261,2026-070AB,2026-06-16T13:33:05.632992,15.34403637,.00010898,53.1587,261.8298,97.1390,262.9737,0,U,68567,999,1171,.69894662E-3,.23315E-3,0
STARLINK-37283,2026-070AC,2026-06-16T13:27:09.900864,15.34410251,.00010288,53.1578,262.5390,85.1915,274.9206,0,U,68568,999,1170,.88881066E-3,.29783E-3,0
STARLINK-37256,2026-070AD,2026-06-16T13:30:04.145472,15.34411366,.00012442,53.1586,261.8513,80.3585,279.7559,0,U,68569,999,1171,.5216706E-3,.17296E-3,0
STARLINK-37228,2026-070AE,2026-06-16T13:24:08.416800,15.34401547,.00012844,53.1587,262.5389,101.0834,259.0313,0,U,68570,999,1170,.47062128E-3,.15558E-3,0
MERIDIAN-M 21L,2026-071A,2026-06-16T05:11:09.375072,2.00617549,.7178348,62.8017,228.8532,285.2144,11.3250,0,U,68571,999,149,0,.131E-5,0
KUIPER-00131,2026-072A,2026-06-16T06:42:12.188736,14.79927009,.0000436,51.9006,199.6636,89.5305,270.5708,0,U,68573,999,1098,.30901E-3,.2135E-4,0
KUIPER-00189,2026-072B,2026-06-16T14:00:01.000224,14.79944059,.00008531,51.8962,200.8074,102.0768,274.1968,0,U,68574,999,572,.30746923E-2,.23306E-3,0
KUIPER-00192,2026-072C,2026-06-16T08:23:18.350016,14.79934282,.00004738,51.8990,196.8521,80.4355,279.6661,0,U,68575,999,1103,.25875417E-3,.1752E-4,0
