STARLINK-37289          
1 68545U 26070D   26167.55210721 -.00024497  00000+0 -71658-3 0  9995
2 68545  53.1584 262.4963 0001089  90.5338 269.5789 15.34385331 11705
STARLINK-37290          
1 68546U 26070E   26167.54790930  .00015477  00000+0  46825-3 0  9994
2 68546  53.1588 262.4514 0001158  90.9722 269.1413 15.34399254 11709
STARLINK-37245          
1 68547U 26070F   26167.54159809  .00022770  00000+0  68275-3 0  9996
2 68547  53.1588 262.4245 0001113  66.0790 294.0329 15.34411560 11709
STARLINK-37145          
1 68548U 26070G   26167.54581388 -.00168457  00000+0 -51105-2 0  9996
2 68548  53.1592 262.4532 0000741  99.8359 260.2727 15.34254613 11706
STARLINK-36204          
1 68549U 26070H   26167.53949473  .00018279  00000+0  55076-3 0  9995
2 68549  53.1600 262.4133 0001104  76.6571 283.4554 15.34403231 11704
STARLINK-36304          
1 68550U 26070J   26167.53528561  .00016694  00000+0  50412-3 0  9996
2 68550  53.1593 262.3832 0001090  79.7466 280.3659 15.34399334 11703
STARLINK-37288          
1 68551U 26070K   26167.53317760  .00024295  00000+0  72769-3 0  9999
2 68551  53.1610 262.3726 0001207  58.9179 301.1942 15.34406980 11709
STARLINK-37295          
1 68552U 26070L   26167.53738365  .00024492  00000+0  73364-3 0  9999
2 68552  53.1602 262.4006 0001266  78.5335 281.5810 15.34400567 11700
STARLINK-37254          
1 68553U 26070M   26167.52687162  .00016126  00000+0  48739-3 0  9990
2 68553  53.1607 262.3279 0001680  95.0828 265.0366 15.34400204 11709
STARLINK-37255          
1 68554U 26070N   26167.52476489  .00025636  00000+0  76712-3 0  9997
2 68554  53.1603 262.3174 0001231  90.4173 269.6971 15.34406263 11707
STARLINK-37146          
1 68555U 26070P   26167.52897526  .00064064  00000+0  18862-2 0  9996
2 68555  53.1604 262.3363 0001464  81.2066 278.9102 15.34481661 11700
STARLINK-37144          
1 68556U 26070Q   26167.58569185  .00021804  00000+0  65454-3 0  9995
2 68556  53.1596 261.9757 0001308  80.0690 280.0460 15.34401431 11719
STARLINK-37210          
1 68557U 26070R   26167.52266088  .00016730  00000+0  50512-3 0  9997
2 68557  53.1590 262.2944 0001466  98.4350 261.6819 15.34404436 11707
STARLINK-37227          
1 68558U 26070S   26167.58358859  .00017232  00000+0  51970-3 0  9999
2 68558  53.1591 261.9736 0001290  61.4510 298.6622 15.34415767 11719
STARLINK-37294          
1 68559U 26070T   26167.58148520  .00020146  00000+0  60549-3 0  9992
2 68559  53.1606 261.9627 0001487  54.8473 305.2668 15.34415448 11719
STARLINK-37291          
1 68560U 26070U   26167.57938042  .00016580  00000+0  50059-3 0  9991
2 68560  53.1592 261.9444 0001150  85.2419 274.8715 15.34411371 11712
STARLINK-37114          
1 68561U 26070V   26167.57727740  .00019378  00000+0  58299-3 0  9995
2 68561  53.1589 261.9292 0001188  75.5312 284.5822 15.34409378 11716
STARLINK-37233          
1 68562U 26070W   26167.50792491  .00027398  00000+0  81884-3 0  9991
2 68562  53.1590 262.1847 0000998 135.1142 224.9941 15.34408158 11704
STARLINK-36238          
1 68563U 26070X   26167.57517306  .00014795  00000+0  44803-3 0  9996
2 68563  53.1607 261.9131 0001418  84.3449 275.7715 15.34408922 11713
STARLINK-37008          
1 68564U 26070Y   26167.57096402  .00023624  00000+0  70811-3 0  9995
2 68564  53.1586 261.8738 0001186  61.6113 298.5009 15.34399700 11712
STARLINK-37161          
1 68565U 26070Z   26167.50372377  .00017309  00000+0  52207-3 0  9999
2 68565  53.1601 262.1584 0001512  81.5316 278.5858 15.34409369 11705
STARLINK-37212          
1 68566U 26070AA  26167.50162876 -.00019685  00000+0 -57383-3 0  9992
2 68566  53.1586 262.1595 0001237  55.9139 304.1981 15.34354169 11702
STARLINK-37261          
1 68567U 26070AB  26167.56464853  .00023315  00000+0  69895-3 0  9993
2 68567  53.1587 261.8298 0001089  97.1390 262.9737 15.34403637 11718
STARLINK-37283          
1 68568U 26070AC  26167.56053126  .00029783  00000+0  88881-3 0  9992
2 68568  53.1578 262.5390 0001028  85.1915 274.9206 15.34410251 11706
STARLINK-37256          
1 68569U 26070AD  26167.56254798  .00017296  00000+0  52167-3 0  9995
2 68569  53.1586 261.8513 0001244  80.3585 279.7559 15.34411366 11718
STARLINK-37228          
1 68570U 26070AE  26167.55843075  .00015558  00000+0  47062-3 0  9995
2 68570  53.1587 262.5389 0001284 101.0834 259.0313 15.34401547 11700
MERIDIAN-M 21L          
1 68571U 26071A   26167.21608073  .00000131  00000+0  00000+0 0  9995
2 68571  62.8017 228.8532 7178348 285.2144  11.3250  2.00617549  1497
KUIPER-00131            
1 68573U 26072A   26167.27930774  .00002135  00000+0  30901-3 0  9993
2 68573  51.9006 199.6636 0000436  89.5305 270.5708 14.79927009 10980
KUIPER-00189            
1 68574U 26072B   26167.58334491  .00023306  00000+0  30747-2 0  9992
2 68574  51.8962 200.8074 0000853 102.0768 274.1968 14.79944059  5727
KUIPER-00192            
1 68575U 26072C   26167.34951794  .00001752  00000+0  25875-3 0  9996
2 68575  51.8990 196.8521 0000473  80.4355 279.6661 14.79934282 11037
